,_id,FHRSID,ChangesByServerID,LocalAuthorityBusinessID,BusinessName,BusinessType,BusinessTypeID,AddressLine1,AddressLine2,AddressLine3,AddressLine4,PostCode,Phone,RatingValue,RatingKey,RatingDate,LocalAuthorityCode,LocalAuthorityName,LocalAuthorityWebSite,LocalAuthorityEmailAddress,scores,SchemeType,geocode,RightToReply,Distance,NewRatingPending,meta,links
0,63bf3aa536d72f157f83973f,110681,0,4029,The Chase Rest Home,Caring Premises,5,5-6 Southfields Road,Eastbourne,East Sussex,,BN21 1BU,,0,fhrs_0_en-gb,2021-09-23T00:00:00,102,Eastbourne,http://www.eastbourne.gov.uk/foodratings,Customerfirst@eastbourne.gov.uk,"{'Hygiene': 20, 'Structural': 20, 'ConfidenceInManagement': 20}",FHRS,"{'longitude': Decimal128('0.27694'), 'latitude': Decimal128('50.769705')}",,4613.888288172291,False,"{'dataSource': None, 'extractDate': '0001-01-01T00:00:00', 'itemCount': 0, 'returncode': None, 'totalCount': 0, 'totalPages': 0, 'pageSize': 0, 'pageNumber': 0}","[{'rel': 'self', 'href': 'https://api.ratings.food.gov.uk/establishments/110681'}]"
1,63bf3aa536d72f157f839ac0,612039,0,1970/FOOD,Brenalwood,Caring Premises,5,Hall Lane,Walton-on-the-Naze,Essex,,CO14 8HN,,0,fhrs_0_en-gb,2022-06-22T00:00:00,120,Tendring,http://www.tendringdc.gov.uk/,fhsadmin@tendringdc.gov.uk,"{'Hygiene': 20, 'Structural': 15, 'ConfidenceInManagement': 30}",FHRS,"{'longitude': Decimal128('1.278721'), 'latitude': Decimal128('51.857536')}",,4617.965823673803,False,"{'dataSource': None, 'extractDate': '0001-01-01T00:00:00', 'itemCount': 0, 'returncode': None, 'totalCount': 0, 'totalPages': 0, 'pageSize': 0, 'pageNumber': 0}","[{'rel': 'self', 'href': 'https://api.ratings.food.gov.uk/establishments/612039'}]"
2,63bf3aa536d72f157f839dcc,730933,0,1698/FOOD,Melrose Hotel,Hotel/bed & breakfast/guest house,7842,53 Marine Parade East,Clacton On Sea,Essex,,CO15 6AD,,0,fhrs_0_en-gb,2021-08-13T00:00:00,120,Tendring,http://www.tendringdc.gov.uk/,fhsadmin@tendringdc.gov.uk,"{'Hygiene': 20, 'Structural': 20, 'ConfidenceInManagement': 20}",FHRS,"{'longitude': Decimal128('1.15927'), 'latitude': Decimal128('51.789429')}",,4619.6561440278165,False,"{'dataSource': None, 'extractDate': '0001-01-01T00:00:00', 'itemCount': 0, 'returncode': None, 'totalCount': 0, 'totalPages': 0, 'pageSize': 0, 'pageNumber': 0}","[{'rel': 'self', 'href': 'https://api.ratings.food.gov.uk/establishments/730933'}]"
3,63bf3aa536d72f157f839fc5,172735,0,PI/000023858,Seaford Pizza,Takeaway/sandwich shop,7844,4 High Street,Seaford,East Sussex,,BN25 1PG,,1,fhrs_1_en-gb,2021-12-23T00:00:00,105,Lewes,http://www.lewes-eastbourne.gov.uk/,ehealth.ldc@lewes-eastbourne.gov.uk,"{'Hygiene': 20, 'Structural': 10, 'ConfidenceInManagement': 20}",FHRS,"{'longitude': Decimal128('0.10202'), 'latitude': Decimal128('50.770885')}",,4620.421724673841,False,"{'dataSource': None, 'extractDate': '0001-01-01T00:00:00', 'itemCount': 0, 'returncode': None, 'totalCount': 0, 'totalPages': 0, 'pageSize': 0, 'pageNumber': 0}","[{'rel': 'self', 'href': 'https://api.ratings.food.gov.uk/establishments/172735'}]"
4,63bf3aa536d72f157f839fc6,172953,0,PI/000024532,Golden Palace,Restaurant/Cafe/Canteen,1,5 South Street,Seaford,East Sussex,,BN25 1HP,,1,fhrs_1_en-gb,2021-10-07T00:00:00,105,Lewes,http://www.lewes-eastbourne.gov.uk/,ehealth.ldc@lewes-eastbourne.gov.uk,"{'Hygiene': 20, 'Structural': 10, 'ConfidenceInManagement': 20}",FHRS,"{'longitude': Decimal128('0.101446'), 'latitude': Decimal128('50.770724')}",,4620.437179097401,False,"{'dataSource': None, 'extractDate': '0001-01-01T00:00:00', 'itemCount': 0, 'returncode': None, 'totalCount': 0, 'totalPages': 0, 'pageSize': 0, 'pageNumber': 0}","[{'rel': 'self', 'href': 'https://api.ratings.food.gov.uk/establishments/172953'}]"
5,63bf3aa536d72f157f83a964,512854,0,12/00816/BUTH,Ashby's Butchers,Retailers - other,4613,777 Southchurch Road,Southend-On-Sea,Essex,,SS1 2PP,,0,fhrs_0_en-gb,2022-07-21T00:00:00,893,Southend-On-Sea,http://www.southend.gov.uk,EnvironmentalHealth@southend.gov.uk,"{'Hygiene': 20, 'Structural': 20, 'ConfidenceInManagement': 20}",FHRS,"{'longitude': Decimal128('0.736349'), 'latitude': Decimal128('51.541448')}",,4625.565258384611,False,"{'dataSource': None, 'extractDate': '0001-01-01T00:00:00', 'itemCount': 0, 'returncode': None, 'totalCount': 0, 'totalPages': 0, 'pageSize': 0, 'pageNumber': 0}","[{'rel': 'self', 'href': 'https://api.ratings.food.gov.uk/establishments/512854'}]"
6,63bf3aa536d72f157f83ab87,1537089,0,22/00224/RESTUN,South Sea Express Cuisine,Restaurant/Cafe/Canteen,1,33 Alexandra Street,Southend-on-sea,Essex,,SS1 1BW,,0,fhrs_0_en-gb,2022-08-03T00:00:00,893,Southend-On-Sea,http://www.southend.gov.uk,EnvironmentalHealth@southend.gov.uk,"{'Hygiene': 20, 'Structural': 20, 'ConfidenceInManagement': 20}",FHRS,"{'longitude': Decimal128('0.7121671'), 'latitude': Decimal128('51.5350065')}",,4626.200132034163,False,"{'dataSource': None, 'extractDate': '0001-01-01T00:00:00', 'itemCount': 0, 'returncode': None, 'totalCount': 0, 'totalPages': 0, 'pageSize': 0, 'pageNumber': 0}","[{'rel': 'self', 'href': 'https://api.ratings.food.gov.uk/establishments/1537089'}]"
7,63bf3aa536d72f157f83c0c1,155648,0,EH/00006058,Golden Palace,Takeaway/sandwich shop,7844,7 London Road,Rayleigh,Essex,,SS6 9HN,,0,fhrs_0_en-gb,2022-03-23T00:00:00,118,Rochford,http://www.rochford.gov.uk,customerservices@rochford.gov.uk,"{'Hygiene': 20, 'Structural': 15, 'ConfidenceInManagement': 30}",FHRS,"{'longitude': Decimal128('0.602364'), 'latitude': Decimal128('51.591515')}",,4632.27689004769,False,"{'dataSource': None, 'extractDate': '0001-01-01T00:00:00', 'itemCount': 0, 'returncode': None, 'totalCount': 0, 'totalPages': 0, 'pageSize': 0, 'pageNumber': 0}","[{'rel': 'self', 'href': 'http://api.ratings.food.gov.uk/establishments/155648'}]"
8,63bf3aa536d72f157f83c4f6,1012883,0,17/00110/MIXED/S,The Tulip Tree,Restaurant/Cafe/Canteen,1,3 The Village,Chiddingstone,KENT,,TN8 7AH,,1,fhrs_1_en-gb,2022-03-04T00:00:00,187,Sevenoaks,http://www.sevenoaks.gov.uk/,environmental.health@sevenoaks.gov.uk,"{'Hygiene': 20, 'Structural': 5, 'ConfidenceInManagement': 20}",FHRS,"{'longitude': Decimal128('0.146449998021126'), 'latitude': Decimal128('51.1859474182129')}",,4633.934040834287,False,"{'dataSource': None, 'extractDate': '0001-01-01T00:00:00', 'itemCount': 0, 'returncode': None, 'totalCount': 0, 'totalPages': 0, 'pageSize': 0, 'pageNumber': 0}","[{'rel': 'self', 'href': 'http://api.ratings.food.gov.uk/establishments/1012883'}]"
9,63bf3aa536d72f157f83cd08,644109,0,41811,F & S,Retailers - other,4613,,81 Southernhay,Basildon,Essex,SS14 1EU,,0,fhrs_0_en-gb,2021-07-26T00:00:00,109,Basildon,http://www.basildon.gov.uk,ehs@basildon.gov.uk,"{'Hygiene': 20, 'Structural': 20, 'ConfidenceInManagement': 20}",FHRS,"{'longitude': Decimal128('0.462307'), 'latitude': Decimal128('51.57005')}",,4636.552523353182,False,"{'dataSource': None, 'extractDate': '0001-01-01T00:00:00', 'itemCount': 0, 'returncode': None, 'totalCount': 0, 'totalPages': 0, 'pageSize': 0, 'pageNumber': 0}","[{'rel': 'self', 'href': 'http://api.ratings.food.gov.uk/establishments/644109'}]"
10,63bf3aa536d72f157f83cd79,267034,0,11/00102/MIXED,Longhouse,Restaurant/Cafe/Canteen,1,17 London Road,Riverhead,KENT,,TN13 2BU,,0,fhrs_0_en-gb,2022-07-27T00:00:00,187,Sevenoaks,http://www.sevenoaks.gov.uk/,environmental.health@sevenoaks.gov.uk,"{'Hygiene': 20, 'Structural': 25, 'ConfidenceInManagement': 30}",FHRS,"{'longitude': Decimal128('0.169685'), 'latitude': Decimal128('51.284795')}",,4636.703065274148,False,"{'dataSource': None, 'extractDate': '0001-01-01T00:00:00', 'itemCount': 0, 'returncode': None, 'totalCount': 0, 'totalPages': 0, 'pageSize': 0, 'pageNumber': 0}","[{'rel': 'self', 'href': 'http://api.ratings.food.gov.uk/establishments/267034'}]"
11,63bf3aa536d72f157f83d437,972876,0,17/00059/FOOD/S,Westview Playgroup Based At Downsview Comm Primary,Other catering premises,7841,Downsview Community Primary School,Beech Avenue,Swanley,KENT,BR8 8AU,,1,fhrs_1_en-gb,2022-03-16T00:00:00,187,Sevenoaks,http://www.sevenoaks.gov.uk/,environmental.health@sevenoaks.gov.uk,"{'Hygiene': 20, 'Structural': 20, 'ConfidenceInManagement': 5}",FHRS,"{'longitude': Decimal128('0.1864034'), 'latitude': Decimal128('51.3954686')}",,4640.152449114619,False,"{'dataSource': None, 'extractDate': '0001-01-01T00:00:00', 'itemCount': 0, 'returncode': None, 'totalCount': 0, 'totalPages': 0, 'pageSize': 0, 'pageNumber': 0}","[{'rel': 'self', 'href': 'http://api.ratings.food.gov.uk/establishments/972876'}]"
12,63bf3aa536d72f157f83dcfb,1417416,0,21/00350/CP,Whatever The Weather Coffee,Mobile caterer,7846,EMR Erith,Manor Road,Erith,Kent,DA8 2AD,,0,fhrs_0_en-gb,2022-02-17T00:00:00,503,Bexley,http://www.bexley.gov.uk,food.safety@bexley.gov.uk,"{'Hygiene': 20, 'Structural': 15, 'ConfidenceInManagement': 20}",FHRS,"{'longitude': Decimal128('0.19265740017645'), 'latitude': Decimal128('51.4774259502039')}",,4642.935252133844,False,"{'dataSource': None, 'extractDate': '0001-01-01T00:00:00', 'itemCount': 0, 'returncode': None, 'totalCount': 0, 'totalPages': 0, 'pageSize': 0, 'pageNumber': 0}","[{'rel': 'self', 'href': 'http://api.ratings.food.gov.uk/establishments/1417416'}]"
13,63bf3aa536d72f157f83e309,1384371,0,21/00062/MIXED,Kings Restaurant (Oriental),Takeaway/sandwich shop,7844,43 Kings Road,Brentwood,Essex,,CM14 4DJ,,0,fhrs_0_en-gb,2022-07-05T00:00:00,111,Brentwood,http://www.brentwood.gov.uk/,envhealth@brentwood.gov.uk,"{'Hygiene': 20, 'Structural': 25, 'ConfidenceInManagement': 20}",FHRS,"{'longitude': Decimal128('0.2983'), 'latitude': Decimal128('51.618135')}",,4644.277277495872,False,"{'dataSource': None, 'extractDate': '0001-01-01T00:00:00', 'itemCount': 0, 'returncode': None, 'totalCount': 0, 'totalPages': 0, 'pageSize': 0, 'pageNumber': 0}","[{'rel': 'self', 'href': 'http://api.ratings.food.gov.uk/establishments/1384371'}]"
14,63bf3aa536d72f157f83e664,907216,0,132648,Xich Lo,Restaurant/Cafe/Canteen,1,24 Station Lane,Hornchurch,,,RM12 6NJ,,1,fhrs_1_en-gb,2022-07-15T00:00:00,516,Havering,http://www.havering.gov.uk,environmental.health@havering.gov.uk,"{'Hygiene': 20, 'Structural': 5, 'ConfidenceInManagement': 10}",FHRS,"{'longitude': Decimal128('0.220507'), 'latitude': Decimal128('51.561287')}",,4645.006441020867,False,"{'dataSource': None, 'extractDate': '0001-01-01T00:00:00', 'itemCount': 0, 'returncode': None, 'totalCount': 0, 'totalPages': 0, 'pageSize': 0, 'pageNumber': 0}","[{'rel': 'self', 'href': 'http://api.ratings.food.gov.uk/establishments/907216'}]"
15,63bf3aa536d72f157f83ebd7,710382,0,PI/000194267,Asian Supermarket Ltd: T/A Best Food Wine Ltd,Retailers - other,4613,2 - 6 Basildon Road,,Abbey Wood,Greenwich,,,0,fhrs_0_en-gb,2022-04-22T00:00:00,511,Greenwich,http://www.royalgreenwich.gov.uk,health@royalgreenwich.gov.uk,"{'Hygiene': 20, 'Structural': 20, 'ConfidenceInManagement': 20}",FHRS,"{'longitude': Decimal128('0.1070469'), 'latitude': Decimal128('51.4848146')}",,4646.327124710291,False,"{'dataSource': None, 'extractDate': '0001-01-01T00:00:00', 'itemCount': 0, 'returncode': None, 'totalCount': 0, 'totalPages': 0, 'pageSize': 0, 'pageNumber': 0}","[{'rel': 'self', 'href': 'http://api.ratings.food.gov.uk/establishments/710382'}]"
16,63bf3aa536d72f157f83ec4b,1411729,0,21/00562/MIXED,Londis,Retailers - other,4613,5 - 7 Cranley Parade,Beaconsfield Road,Mottingham,London,SE9 4DZ,,0,fhrs_0_en-gb,2021-11-12T00:00:00,505,Bromley,http://www.bromley.gov.uk,food@bromley.gov.uk,"{'Hygiene': 20, 'Structural': 10, 'ConfidenceInManagement': 30}",FHRS,"{'longitude': Decimal128('0.0460971'), 'latitude': Decimal128('51.4273993')}",,4646.4482563738065,True,"{'dataSource': None, 'extractDate': '0001-01-01T00:00:00', 'itemCount': 0, 'returncode': None, 'totalCount': 0, 'totalPages': 0, 'pageSize': 0, 'pageNumber': 0}","[{'rel': 'self', 'href': 'http://api.ratings.food.gov.uk/establishments/1411729'}]"
17,63bf3aa536d72f157f83eea2,1060293,0,PI/000206588,Costcutter,Retailers - other,4613,2 The Slade,,Plumstead,Greenwich,SE18 2NB,,0,fhrs_0_en-gb,2022-03-14T00:00:00,511,Greenwich,http://www.royalgreenwich.gov.uk,health@royalgreenwich.gov.uk,"{'Hygiene': 20, 'Structural': 15, 'ConfidenceInManagement': 20}",FHRS,"{'longitude': Decimal128('0.0888789'), 'latitude': Decimal128('51.4800266')}",,4646.814121604596,False,"{'dataSource': None, 'extractDate': '0001-01-01T00:00:00', 'itemCount': 0, 'returncode': None, 'totalCount': 0, 'totalPages': 0, 'pageSize': 0, 'pageNumber': 0}","[{'rel': 'self', 'href': 'http://api.ratings.food.gov.uk/establishments/1060293'}]"
18,63bf3aa536d72f157f83f480,1243155,0,75460,La Simon Ltd,Retailers - other,4613,,8 Porters Avenue,,Dagenham,RM8 2AQ,,1,fhrs_1_en-gb,2022-03-30T00:00:00,501,Barking and Dagenham,http://www.lbbd.gov.uk/Pages/Home.aspx,foodsafety@lbbd.gov.uk,"{'Hygiene': 20, 'Structural': 15, 'ConfidenceInManagement': 5}",FHRS,"{'longitude': Decimal128('0.1300921'), 'latitude': Decimal128('51.5515791')}",,4647.937954737693,False,"{'dataSource': None, 'extractDate': '0001-01-01T00:00:00', 'itemCount': 0, 'returncode': None, 'totalCount': 0, 'totalPages': 0, 'pageSize': 0, 'pageNumber': 0}","[{'rel': 'self', 'href': 'http://api.ratings.food.gov.uk/establishments/1243155'}]"
19,63bf3aa536d72f157f83fa32,1210197,0,75196,Caribiscus Ltd,Restaurant/Cafe/Canteen,1,,87 Longbridge Road,,Barking,IG11 8TB,,0,fhrs_0_en-gb,2022-06-20T00:00:00,501,Barking and Dagenham,http://www.lbbd.gov.uk/Pages/Home.aspx,foodsafety@lbbd.gov.uk,"{'Hygiene': 20, 'Structural': 20, 'ConfidenceInManagement': 30}",FHRS,"{'longitude': Decimal128('0.084452'), 'latitude': Decimal128('51.541715')}",,4649.2374619583225,False,"{'dataSource': None, 'extractDate': '0001-01-01T00:00:00', 'itemCount': 0, 'returncode': None, 'totalCount': 0, 'totalPages': 0, 'pageSize': 0, 'pageNumber': 0}","[{'rel': 'self', 'href': 'http://api.ratings.food.gov.uk/establishments/1210197'}]"
20,63bf3aa536d72f157f83fa55,108663,0,38915,Kennedy Fried Chicken,Takeaway/sandwich shop,7844,,66 Station Parade,,Barking,IG11 8EA,,0,fhrs_0_en-gb,2022-06-11T00:00:00,501,Barking and Dagenham,http://www.lbbd.gov.uk/Pages/Home.aspx,foodsafety@lbbd.gov.uk,"{'Hygiene': 20, 'Structural': 20, 'ConfidenceInManagement': 30}",FHRS,"{'longitude': Decimal128('0.081616'), 'latitude': Decimal128('51.539293')}",,4649.2519200445495,False,"{'dataSource': None, 'extractDate': '0001-01-01T00:00:00', 'itemCount': 0, 'returncode': None, 'totalCount': 0, 'totalPages': 0, 'pageSize': 0, 'pageNumber': 0}","[{'rel': 'self', 'href': 'http://api.ratings.food.gov.uk/establishments/108663'}]"
21,63bf3aa536d72f157f83fd29,1107748,0,19/00222/FOOD,Gah Shing,Takeaway/sandwich shop,7844,5 High Street South,East Ham,London,,E6 6EN,,1,fhrs_1_en-gb,2022-05-11T00:00:00,525,Newham,https://www.newham.gov.uk,food@newham.gov.uk,"{'Hygiene': 20, 'Structural': 15, 'ConfidenceInManagement': 10}",FHRS,"{'longitude': Decimal128('0.055764'), 'latitude': Decimal128('51.531385')}",,4649.903793551815,False,"{'dataSource': None, 'extractDate': '0001-01-01T00:00:00', 'itemCount': 0, 'returncode': None, 'totalCount': 0, 'totalPages': 0, 'pageSize': 0, 'pageNumber': 0}","[{'rel': 'self', 'href': 'http://api.ratings.food.gov.uk/establishments/1107748'}]"
22,63bf3aa536d72f157f83fd67,570096,0,178447,A1 News & Wine,Retailers - other,4613,,221 Ilford Lane,,Ilford,IG1 2RZ,,1,fhrs_1_en-gb,2021-06-02T00:00:00,526,Redbridge,http://www.redbridge.gov.uk/,themis.skouros@redbridge.gov.uk,"{'Hygiene': 20, 'Structural': 10, 'ConfidenceInManagement': 20}",FHRS,"{'longitude': Decimal128('0.074347'), 'latitude': Decimal128('51.551624')}",,4649.968842000992,False,"{'dataSource': None, 'extractDate': '0001-01-01T00:00:00', 'itemCount': 0, 'returncode': None, 'totalCount': 0, 'totalPages': 0, 'pageSize': 0, 'pageNumber': 0}","[{'rel': 'self', 'href': 'http://api.ratings.food.gov.uk/establishments/570096'}]"
23,63bf3aa536d72f157f83fe74,1500698,0,201759,Cakes & Bakes,Takeaway/sandwich shop,7844,,108 Ilford Lane,,Ilford,IG1 2LD,,0,fhrs_0_en-gb,2022-05-19T00:00:00,526,Redbridge,http://www.redbridge.gov.uk/,themis.skouros@redbridge.gov.uk,"{'Hygiene': 20, 'Structural': 15, 'ConfidenceInManagement': 20}",FHRS,"{'longitude': Decimal128('0.0725645'), 'latitude': Decimal128('51.5540755')}",,4650.123644180097,False,"{'dataSource': None, 'extractDate': '0001-01-01T00:00:00', 'itemCount': 0, 'returncode': None, 'totalCount': 0, 'totalPages': 0, 'pageSize': 0, 'pageNumber': 0}","[{'rel': 'self', 'href': 'http://api.ratings.food.gov.uk/establishments/1500698'}]"
24,63bf3aa536d72f157f83ff36,1318114,0,200845,Sahajanand Catering Limited,Restaurant/Cafe/Canteen,1,,149 Ley Street,,Ilford,IG1 4BL,,1,fhrs_1_en-gb,2022-07-04T00:00:00,526,Redbridge,http://www.redbridge.gov.uk/,themis.skouros@redbridge.gov.uk,"{'Hygiene': 20, 'Structural': 20, 'ConfidenceInManagement': 5}",FHRS,"{'longitude': Decimal128('0.077645'), 'latitude': Decimal128('51.562276')}",,4650.2394323606195,False,"{'dataSource': None, 'extractDate': '0001-01-01T00:00:00', 'itemCount': 0, 'returncode': None, 'totalCount': 0, 'totalPages': 0, 'pageSize': 0, 'pageNumber': 0}","[{'rel': 'self', 'href': 'http://api.ratings.food.gov.uk/establishments/1318114'}]"
25,63bf3aa536d72f157f83ff42,1498084,0,22/00797/FOOD,Sisko Cafe,Restaurant/Cafe/Canteen,1,151 - 153 Barking Road,East Ham,London,,E6 1LD,,0,fhrs_0_en-gb,2022-04-22T00:00:00,525,Newham,https://www.newham.gov.uk,food@newham.gov.uk,"{'Hygiene': 20, 'Structural': 20, 'ConfidenceInManagement': 20}",FHRS,"{'longitude': Decimal128('0.046878'), 'latitude': Decimal128('51.531936')}",,4650.247785381525,False,"{'dataSource': None, 'extractDate': '0001-01-01T00:00:00', 'itemCount': 0, 'returncode': None, 'totalCount': 0, 'totalPages': 0, 'pageSize': 0, 'pageNumber': 0}","[{'rel': 'self', 'href': 'http://api.ratings.food.gov.uk/establishments/1498084'}]"
26,63bf3aa536d72f157f84002f,1063454,0,18/00285/FOOD,Magazin Romanesc Diana,Retailers - other,4613,221 High Street North,East Ham,London,,E6 1JG,,1,fhrs_1_en-gb,2022-07-25T00:00:00,525,Newham,https://www.newham.gov.uk,food@newham.gov.uk,"{'Hygiene': 20, 'Structural': 10, 'ConfidenceInManagement': 20}",FHRS,"{'longitude': Decimal128('0.050713'), 'latitude': Decimal128('51.53963')}",,4650.389970646722,False,"{'dataSource': None, 'extractDate': '0001-01-01T00:00:00', 'itemCount': 0, 'returncode': None, 'totalCount': 0, 'totalPages': 0, 'pageSize': 0, 'pageNumber': 0}","[{'rel': 'self', 'href': 'http://api.ratings.food.gov.uk/establishments/1063454'}]"
27,63bf3aa536d72f157f8400a7,1130121,0,19/00249/FOOD,Bali Maamalas,Restaurant/Cafe/Canteen,1,241B High Street North,Manor Park,London,,E12 6SJ,,1,fhrs_1_en-gb,2022-05-11T00:00:00,525,Newham,https://www.newham.gov.uk,food@newham.gov.uk,"{'Hygiene': 20, 'Structural': 10, 'ConfidenceInManagement': 20}",FHRS,"{'longitude': Decimal128('0.050334'), 'latitude': Decimal128('51.541156')}",,4650.459698178172,False,"{'dataSource': None, 'extractDate': '0001-01-01T00:00:00', 'itemCount': 0, 'returncode': None, 'totalCount': 0, 'totalPages': 0, 'pageSize': 0, 'pageNumber': 0}","[{'rel': 'self', 'href': 'http://api.ratings.food.gov.uk/establishments/1130121'}]"
28,63bf3aa536d72f157f8402ef,640363,0,10/00269/FOOD,Angels Bakery,Other catering premises,7841,333 Barking Road,Plaistow,London,,E13 8EE,,0,fhrs_0_en-gb,2022-07-20T00:00:00,525,Newham,https://www.newham.gov.uk,food@newham.gov.uk,"{'Hygiene': 20, 'Structural': 20, 'ConfidenceInManagement': 20}",FHRS,"{'longitude': Decimal128('0.021028'), 'latitude': Decimal128('51.52189')}",,4650.822100156243,False,"{'dataSource': None, 'extractDate': '0001-01-01T00:00:00', 'itemCount': 0, 'returncode': None, 'totalCount': 0, 'totalPages': 0, 'pageSize': 0, 'pageNumber': 0}","[{'rel': 'self', 'href': 'http://api.ratings.food.gov.uk/establishments/640363'}]"
29,63bf3aa536d72f157f84033b,640816,0,61130/0282/0/000,Nikkis Place Restaurant,Restaurant/Cafe/Canteen,1,282 Barking Road,Plaistow,London,,E13 8HR,,0,fhrs_0_en-gb,2022-06-30T00:00:00,525,Newham,https://www.newham.gov.uk,food@newham.gov.uk,"{'Hygiene': 20, 'Structural': 20, 'ConfidenceInManagement': 20}",FHRS,"{'longitude': Decimal128('0.018342'), 'latitude': Decimal128('51.520147')}",,4650.85622582084,False,"{'dataSource': None, 'extractDate': '0001-01-01T00:00:00', 'itemCount': 0, 'returncode': None, 'totalCount': 0, 'totalPages': 0, 'pageSize': 0, 'pageNumber': 0}","[{'rel': 'self', 'href': 'http://api.ratings.food.gov.uk/establishments/640816'}]"
30,63bf3aa536d72f157f8403ab,1530599,0,22/01037/FOOD,Chicago 30,Takeaway/sandwich shop,7844,369 Katherine Road,Forest Gate,London,,E7 8LT,,0,fhrs_0_en-gb,2022-07-05T00:00:00,525,Newham,https://www.newham.gov.uk,food@newham.gov.uk,"{'Hygiene': 20, 'Structural': 15, 'ConfidenceInManagement': 30}",FHRS,"{'longitude': Decimal128('0.037523'), 'latitude': Decimal128('51.541658')}",,4650.9448351911105,False,"{'dataSource': None, 'extractDate': '0001-01-01T00:00:00', 'itemCount': 0, 'returncode': None, 'totalCount': 0, 'totalPages': 0, 'pageSize': 0, 'pageNumber': 0}","[{'rel': 'self', 'href': 'http://api.ratings.food.gov.uk/establishments/1530599'}]"
31,63bf3aa536d72f157f8404ba,668674,0,14/00082/COM,Samui Thai Restaurant,Restaurant/Cafe/Canteen,1,The Kinema,Chelmsford Road,Dunmow,,CM6 1HB,,0,fhrs_0_en-gb,2022-03-24T00:00:00,122,Uttlesford,http://www.uttlesford.gov.uk,environmentalhealth@uttlesford.gov.uk,"{'Hygiene': 20, 'Structural': 20, 'ConfidenceInManagement': 30}",FHRS,"{'longitude': Decimal128('0.3659018'), 'latitude': Decimal128('51.8686712')}",,4651.0999945416315,False,"{'dataSource': None, 'extractDate': '0001-01-01T00:00:00', 'itemCount': 0, 'returncode': None, 'totalCount': 0, 'totalPages': 0, 'pageSize': 0, 'pageNumber': 0}","[{'rel': 'self', 'href': 'http://api.ratings.food.gov.uk/establishments/668674'}]"
32,63bf3aa536d72f157f8405a1,1286585,0,20/00532/FOOD,Pakhtoonkhwa Restaurant,Restaurant/Cafe/Canteen,1,76 Green Street,Forest Gate,London,,E7 8JG,,0,fhrs_0_en-gb,2022-06-14T00:00:00,525,Newham,https://www.newham.gov.uk,food@newham.gov.uk,"{'Hygiene': 20, 'Structural': 20, 'ConfidenceInManagement': 20}",FHRS,"{'longitude': Decimal128('0.031959'), 'latitude': Decimal128('51.543994')}",,4651.2331297369665,False,"{'dataSource': None, 'extractDate': '0001-01-01T00:00:00', 'itemCount': 0, 'returncode': None, 'totalCount': 0, 'totalPages': 0, 'pageSize': 0, 'pageNumber': 0}","[{'rel': 'self', 'href': 'http://api.ratings.food.gov.uk/establishments/1286585'}]"
33,63bf3aa536d72f157f840657,971735,0,17/00076/COM,New Happy Garden,Takeaway/sandwich shop,7844,23 Stortford Road,Dunmow,,,CM6 1DA,,0,fhrs_0_en-gb,2022-03-28T00:00:00,122,Uttlesford,http://www.uttlesford.gov.uk,environmentalhealth@uttlesford.gov.uk,"{'Hygiene': 20, 'Structural': 20, 'ConfidenceInManagement': 20}",FHRS,"{'longitude': Decimal128('0.360846'), 'latitude': Decimal128('51.873055')}",,4651.44448783849,False,"{'dataSource': None, 'extractDate': '0001-01-01T00:00:00', 'itemCount': 0, 'returncode': None, 'totalCount': 0, 'totalPages': 0, 'pageSize': 0, 'pageNumber': 0}","[{'rel': 'self', 'href': 'http://api.ratings.food.gov.uk/establishments/971735'}]"
34,63bf3aa536d72f157f8407fe,1055935,0,18/00198/FOOD,Mummy Yum,Takeaway/sandwich shop,7844,34 West Ham Lane,Stratford,London,,E15 4SA,,0,fhrs_0_en-gb,2022-07-12T00:00:00,525,Newham,https://www.newham.gov.uk,food@newham.gov.uk,"{'Hygiene': 20, 'Structural': 20, 'ConfidenceInManagement': 20}",FHRS,"{'longitude': Decimal128('0.004389'), 'latitude': Decimal128('51.538857')}",,4652.049759667773,False,"{'dataSource': None, 'extractDate': '0001-01-01T00:00:00', 'itemCount': 0, 'returncode': None, 'totalCount': 0, 'totalPages': 0, 'pageSize': 0, 'pageNumber': 0}","[{'rel': 'self', 'href': 'http://api.ratings.food.gov.uk/establishments/1055935'}]"
35,63bf3aa536d72f157f840989,1177878,0,347294,Gospodina,Retailers - other,4613,,345 High Road Leytonstone,,Leytonstone,E11 4JT,,0,fhrs_0_en-gb,2022-06-27T00:00:00,531,Waltham Forest,http://www.walthamforest.gov.uk,environmentalhealth@walthamforest.gov.uk,"{'Hygiene': 20, 'Structural': 20, 'ConfidenceInManagement': 30}",FHRS,"{'longitude': Decimal128('0.005407'), 'latitude': Decimal128('51.555782')}",,4652.63219028813,False,"{'dataSource': None, 'extractDate': '0001-01-01T00:00:00', 'itemCount': 0, 'returncode': None, 'totalCount': 0, 'totalPages': 0, 'pageSize': 0, 'pageNumber': 0}","[{'rel': 'self', 'href': 'http://api.ratings.food.gov.uk/establishments/1177878'}]"
36,63bf3aa536d72f157f840a77,1296829,0,347449,Leo's Bar & Grill,Restaurant/Cafe/Canteen,1,,32 Church Lane,,Leytonstone,E11 1HG,,1,fhrs_1_en-gb,2022-06-15T00:00:00,531,Waltham Forest,http://www.walthamforest.gov.uk,environmentalhealth@walthamforest.gov.uk,"{'Hygiene': 20, 'Structural': 5, 'ConfidenceInManagement': 20}",FHRS,"{'longitude': Decimal128('0.009101'), 'latitude': Decimal128('51.568245')}",,4652.953922367066,True,"{'dataSource': None, 'extractDate': '0001-01-01T00:00:00', 'itemCount': 0, 'returncode': None, 'totalCount': 0, 'totalPages': 0, 'pageSize': 0, 'pageNumber': 0}","[{'rel': 'self', 'href': 'http://api.ratings.food.gov.uk/establishments/1296829'}]"
37,63bf3aa536d72f157f840dee,514573,0,44243,Royal Ribs,Takeaway/sandwich shop,7844,,14 Hatch Lane,,Chingford,E4 6LQ,,0,fhrs_0_en-gb,2022-07-01T00:00:00,531,Waltham Forest,http://www.walthamforest.gov.uk,environmentalhealth@walthamforest.gov.uk,"{'Hygiene': 20, 'Structural': 15, 'ConfidenceInManagement': 30}",FHRS,"{'longitude': Decimal128('0.006248'), 'latitude': Decimal128('51.61912')}",,4654.920995700347,False,"{'dataSource': None, 'extractDate': '0001-01-01T00:00:00', 'itemCount': 0, 'returncode': None, 'totalCount': 0, 'totalPages': 0, 'pageSize': 0, 'pageNumber': 0}","[{'rel': 'self', 'href': 'http://api.ratings.food.gov.uk/establishments/514573'}]"
38,63bf3aa536d72f157f840fe4,124507,0,53022999151,Great Hallingbury Manor Hotel,Restaurant/Cafe/Canteen,1,Great Hallingbury Manor,Tilekiln Green,Great Hallingbury,Bishops Stortford,CM22 7TJ,,1,fhrs_1_en-gb,2021-07-28T00:00:00,122,Uttlesford,http://www.uttlesford.gov.uk,environmentalhealth@uttlesford.gov.uk,"{'Hygiene': 20, 'Structural': 10, 'ConfidenceInManagement': 20}",FHRS,"{'longitude': Decimal128('0.207771003246307'), 'latitude': Decimal128('51.8686828613281')}",,4656.798774391753,False,"{'dataSource': None, 'extractDate': '0001-01-01T00:00:00', 'itemCount': 0, 'returncode': None, 'totalCount': 0, 'totalPages': 0, 'pageSize': 0, 'pageNumber': 0}","[{'rel': 'self', 'href': 'http://api.ratings.food.gov.uk/establishments/124507'}]"
39,63bf3aa536d72f157f841202,479001,0,12/00162/COM,The Dog And Duck,Pub/bar/nightclub,7843,58 Lower Street,Stansted,Essex,,CM24 8LR,,0,fhrs_0_en-gb,2021-11-11T00:00:00,122,Uttlesford,http://www.uttlesford.gov.uk,environmentalhealth@uttlesford.gov.uk,"{'Hygiene': 20, 'Structural': 15, 'ConfidenceInManagement': 20}",FHRS,"{'longitude': Decimal128('0.201087'), 'latitude': Decimal128('51.904039')}",,4658.344880326824,False,"{'dataSource': None, 'extractDate': '0001-01-01T00:00:00', 'itemCount': 0, 'returncode': None, 'totalCount': 0, 'totalPages': 0, 'pageSize': 0, 'pageNumber': 0}","[{'rel': 'self', 'href': 'http://api.ratings.food.gov.uk/establishments/479001'}]"
40,63bf3aa536d72f157f8413f2,107710,0,38127001007,Oriental Cottage,Takeaway/sandwich shop,7844,1 Mercers Row,Saffron Walden,Essex,,CB10 1HD,,0,fhrs_0_en-gb,2022-03-31T00:00:00,122,Uttlesford,http://www.uttlesford.gov.uk,environmentalhealth@uttlesford.gov.uk,"{'Hygiene': 20, 'Structural': 15, 'ConfidenceInManagement': 20}",FHRS,"{'longitude': Decimal128('0.240491'), 'latitude': Decimal128('52.02328')}",,4661.334349371914,False,"{'dataSource': None, 'extractDate': '0001-01-01T00:00:00', 'itemCount': 0, 'returncode': None, 'totalCount': 0, 'totalPages': 0, 'pageSize': 0, 'pageNumber': 0}","[{'rel': 'self', 'href': 'http://api.ratings.food.gov.uk/establishments/107710'}]"
